ORBCOMM FM103           
1 40091U 14040F   24135.26950777  .00001820  00000+0  44178-3 0  9998
2 40091  47.0042  99.4973 0002525 260.8909  99.1690 14.56585442505910
ORBCOMM FM114           
1 41179U 15081A   24135.37156686  .00002216  00000+0  52916-3 0  9990
2 41179  47.0031   8.2977 0001843 303.4957  56.5752 14.56628444446298
ORBCOMM FM119           
1 41180U 15081B   24135.41043506  .00002033  00000+0  48920-3 0  9990
2 41180  46.9998 277.3046 0001081 343.2892  16.7957 14.56574987447557
ORBCOMM FM105           
1 41181U 15081C   24135.55712359  .00001275  00000+0  41203-3 0  9999
2 41181  47.0013 243.8991 0002128 312.5599  47.5101 14.44384657443101
ORBCOMM FM110           
1 41182U 15081D   24135.34885306  .00002246  00000+0  53587-3 0  9997
2 41182  47.0020   7.8130 0001586 148.4268 211.6712 14.56621169446165
ORBCOMM FM118           
1 41183U 15081E   24135.32626104  .00002261  00000+0  53945-3 0  9990
2 41183  47.0043   8.2275 0001617 144.5196 215.5796 14.56609602446262
ORBCOMM FM113           
1 41185U 15081G   24135.43336480  .00002251  00000+0  53712-3 0  9990
2 41185  46.9995 276.6786 0000619 314.9748  45.1086 14.56618870447484
